{
  "type": "FeatureCollection",
  "features": [
    {
      "type": "Feature",
      "properties": {
        "norad_id": 39160,
        "name": "VNREDSAT 1",
        "group": "resource",
        "lat": -60.87000004718575,
        "lon": -155.78400434264123,
        "alt_km": 685.4210670951006,
        "timestamp": "2025-12-09T07:41:32.859845+00:00",
        "meta_object_name": "VNREDSAT 1",
        "meta_object_id": "2013-021B",
        "meta_epoch": "2025-12-08T22:23:43.499904",
        "meta_mean_motion": 14.64913946,
        "meta_eccentricity": 0.00013494,
        "meta_inclination": 97.9376,
        "meta_ra_of_asc_node": 38.3413,
        "meta_arg_of_pericenter": 79.6996,
        "meta_mean_anomaly": 280.4359,
        "meta_ephemeris_type": 0,
        "meta_classification_type": "U",
        "meta_norad_cat_id": 39160,
        "meta_element_set_no": 999,
        "meta_rev_at_epoch": 67243,
        "meta_bstar": 0.00020330369,
        "meta_mean_motion_dot": 1.042e-05,
        "meta_mean_motion_ddot": 0,
        "tle_line1": "1 39160U 13021B   25342.93314236  .00001042  00000+0  20330-3 0  9990",
        "tle_line2": "2 39160  97.9376  38.3413 0001349  79.6996 280.4359 14.64913946672437"
      },
      "geometry": {
        "type": "Point",
        "coordinates": [
          -155.78400434264123,
          -60.87000004718575
        ]
      }
    },
    {
      "type": "Feature",
      "properties": {
        "norad_id": 39227,
        "name": "ARIRANG-5 (KOMPSAT-5)",
        "group": "resource",
        "lat": -13.967158219297298,
        "lon": -14.232874401138256,
        "alt_km": 559.2567973361774,
        "timestamp": "2025-12-09T07:41:32.859856+00:00",
        "meta_object_name": "ARIRANG-5 (KOMPSAT-5)",
        "meta_object_id": "2013-042A",
        "meta_epoch": "2025-12-08T22:51:08.686368",
        "meta_mean_motion": 15.04534198,
        "meta_eccentricity": 0.00038509,
        "meta_inclination": 97.6142,
        "meta_ra_of_asc_node": 167.3109,
        "meta_arg_of_pericenter": 67.1516,
        "meta_mean_anomaly": 293.0116,
        "meta_ephemeris_type": 0,
        "meta_classification_type": "U",
        "meta_norad_cat_id": 39227,
        "meta_element_set_no": 999,
        "meta_rev_at_epoch": 67525,
        "meta_bstar": 0.00028456926,
        "meta_mean_motion_dot": 3.928e-05,
        "meta_mean_motion_ddot": 0,
        "tle_line1": "1 39227U 13042A   25342.95218387  .00003928  00000+0  28457-3 0  9992",
        "tle_line2": "2 39227  97.6142 167.3109 0003850  67.1516 293.0116 15.04534198675250"
      },
      "geometry": {
        "type": "Point",
        "coordinates": [
          -14.232874401138256,
          -13.967158219297298
        ]
      }
    },
    {
      "type": "Feature",
      "properties": {
        "norad_id": 39418,
        "name": "SKYSAT-A",
        "group": "resource",
        "lat": 59.458689039717505,
        "lon": -133.6228734657429,
        "alt_km": 534.8432307753455,
        "timestamp": "2025-12-09T07:41:32.859866+00:00",
        "meta_object_name": "SKYSAT-A",
        "meta_object_id": "2013-066C",
        "meta_epoch": "2025-12-08T23:13:09.414912",
        "meta_mean_motion": 15.11558162,
        "meta_eccentricity": 0.00206861,
        "meta_inclination": 97.4108,
        "meta_ra_of_asc_node": 33.2904,
        "meta_arg_of_pericenter": 250.6647,
        "meta_mean_anomaly": 109.2347,
        "meta_ephemeris_type": 0,
        "meta_classification_type": "U",
        "meta_norad_cat_id": 39418,
        "meta_element_set_no": 999,
        "meta_rev_at_epoch": 65973,
        "meta_bstar": 0.00030781706,
        "meta_mean_motion_dot": 5.183e-05,
        "meta_mean_motion_ddot": 0,
        "tle_line1": "1 39418U 13066C   25342.96747008  .00005183  00000+0  30782-3 0  9997",
        "tle_line2": "2 39418  97.4108  33.2904 0020686 250.6647 109.2347 15.11558162659730"
      },
      "geometry": {
        "type": "Point",
        "coordinates": [
          -133.6228734657429,
          59.458689039717505
        ]
      }
    },
    {
      "type": "Feature",
      "properties": {
        "norad_id": 39419,
        "name": "DUBAISAT-2",
        "group": "resource",
        "lat": -57.50512040590741,
        "lon": -14.320401235806369,
        "alt_km": 542.006885420953,
        "timestamp": "2025-12-09T07:41:32.859876+00:00",
        "meta_object_name": "DUBAISAT-2",
        "meta_object_id": "2013-066D",
        "meta_epoch": "2025-12-08T22:23:48.118848",
        "meta_mean_motion": 15.08296266,
        "meta_eccentricity": 0.00110151,
        "meta_inclination": 97.4446,
        "meta_ra_of_asc_node": 333.4577,
        "meta_arg_of_pericenter": 334.4917,
        "meta_mean_anomaly": 25.5767,
        "meta_ephemeris_type": 0,
        "meta_classification_type": "U",
        "meta_norad_cat_id": 39419,
        "meta_element_set_no": 999,
        "meta_rev_at_epoch": 65769,
        "meta_bstar": 0.00035687164,
        "meta_mean_motion_dot": 5.481e-05,
        "meta_mean_motion_ddot": 0,
        "tle_line1": "1 39419U 13066D   25342.93319582  .00005481  00000+0  35687-3 0  9997",
        "tle_line2": "2 39419  97.4446 333.4577 0011015 334.4917  25.5767 15.08296266657693"
      },
      "geometry": {
        "type": "Point",
        "coordinates": [
          -14.320401235806369,
          -57.50512040590741
        ]
      }
    },
    {
      "type": "Feature",
      "properties": {
        "norad_id": 39574,
        "name": "GPM-CORE",
        "group": "resource",
        "lat": -19.815410324841718,
        "lon": -145.55642960751496,
        "alt_km": 431.6769833487524,
        "timestamp": "2025-12-09T07:41:32.859887+00:00",
        "meta_object_name": "GPM-CORE",
        "meta_object_id": "2014-009C",
        "meta_epoch": "2025-12-08T22:28:07.444992",
        "meta_mean_motion": 15.45424114,
        "meta_eccentricity": 0.00105128,
        "meta_inclination": 64.9737,
        "meta_ra_of_asc_node": 225.4232,
        "meta_arg_of_pericenter": 270.0055,
        "meta_mean_anomaly": 89.9881,
        "meta_ephemeris_type": 0,
        "meta_classification_type": "U",
        "meta_norad_cat_id": 39574,
        "meta_element_set_no": 999,
        "meta_rev_at_epoch": 66842,
        "meta_bstar": 0.00036360366,
        "meta_mean_motion_dot": 0.00017314,
        "meta_mean_motion_ddot": 0,
        "tle_line1": "1 39574U 14009C   25342.93619728  .00017314  00000+0  36360-3 0  9999",
        "tle_line2": "2 39574  64.9737 225.4232 0010512 270.0055  89.9881 15.45424114668424"
      },
      "geometry": {
        "type": "Point",
        "coordinates": [
          -145.55642960751496,
          -19.815410324841718
        ]
      }
    },
    {
      "type": "Feature",
      "properties": {
        "norad_id": 39634,
        "name": "SENTINEL-1A",
        "group": "resource",
        "lat": 6.762995853917206,
        "lon": 169.58934036985076,
        "alt_km": 697.8043976981617,
        "timestamp": "2025-12-09T07:41:32.859897+00:00",
        "meta_object_name": "SENTINEL-1A",
        "meta_object_id": "2014-016A",
        "meta_epoch": "2025-12-09T00:19:09.140736",
        "meta_mean_motion": 14.59200018,
        "meta_eccentricity": 0.00012436,
        "meta_inclination": 98.1799,
        "meta_ra_of_asc_node": 348.3093,
        "meta_arg_of_pericenter": 84.9052,
        "meta_mean_anomaly": 275.229,
        "meta_ephemeris_type": 0,
        "meta_classification_type": "U",
        "meta_norad_cat_id": 39634,
        "meta_element_set_no": 999,
        "meta_rev_at_epoch": 62228,
        "meta_bstar": 4.7686136e-05,
        "meta_mean_motion_dot": 1.79e-06,
        "meta_mean_motion_ddot": 0,
        "tle_line1": "1 39634U 14016A   25343.01330024  .00000179  00000+0  47686-4 0  9998",
        "tle_line2": "2 39634  98.1799 348.3093 0001243  84.9052 275.2290 14.59200018622285"
      },
      "geometry": {
        "type": "Point",
        "coordinates": [
          169.58934036985076,
          6.762995853917206
        ]
      }
    },
    {
      "type": "Feature",
      "properties": {
        "norad_id": 39731,
        "name": "KAZEOSAT 1",
        "group": "resource",
        "lat": -1.9353086038094216,
        "lon": 55.58867773276482,
        "alt_km": 754.9933847863049,
        "timestamp": "2025-12-09T07:41:32.859908+00:00",
        "meta_object_name": "KAZEOSAT 1",
        "meta_object_id": "2014-024A",
        "meta_epoch": "2025-12-08T23:22:30.831744",
        "meta_mean_motion": 14.42058497,
        "meta_eccentricity": 0.00010874,
        "meta_inclination": 98.3437,
        "meta_ra_of_asc_node": 54.9658,
        "meta_arg_of_pericenter": 95.3868,
        "meta_mean_anomaly": 264.7446,
        "meta_ephemeris_type": 0,
        "meta_classification_type": "U",
        "meta_norad_cat_id": 39731,
        "meta_element_set_no": 999,
        "meta_rev_at_epoch": 61114,
        "meta_bstar": 7.4976734e-05,
        "meta_mean_motion_dot": 2.03e-06,
        "meta_mean_motion_ddot": 0,
        "tle_line1": "1 39731U 14024A   25342.97396796  .00000203  00000+0  74977-4 0  9998",
        "tle_line2": "2 39731  98.3437  54.9658 0001087  95.3868 264.7446 14.42058497611141"
      },
      "geometry": {
        "type": "Point",
        "coordinates": [
          55.58867773276482,
          -1.9353086038094216
        ]
      }
    }
  ]
}